[{"OBJECT_NAME":"STARLINK-2654","OBJECT_ID":"2021-040AC","EPOCH":"2026-03-18T13:31:04.624608","MEAN_MOTION":15.30198232,"ECCENTRICITY":0.00012621,"INCLINATION":53.1612,"RA_OF_ASC_NODE":136.9059,"ARG_OF_PERICENTER":82.7069,"MEAN_ANOMALY":277.4075,"EPHEMERIS_TYPE":0,"CLASSIFICATION_TYPE":"U","NORAD_CAT_ID":48454,"ELEMENT_SET_NO":999,"REV_AT_EPOCH":26804,"BSTAR":9.0646138e-5,"MEAN_MOTION_DOT":2.326e-5,"MEAN_MOTION_DDOT":0},{"OBJECT_NAME":"STARLINK-2497","OBJECT_ID":"2021-040AD","EPOCH":"2026-03-18T10:18:24.326208","MEAN_MOTION":15.30202595,"ECCENTRICITY":0.0001393,"INCLINATION":53.1605,"RA_OF_ASC_NODE":137.5325,"ARG_OF_PERICENTER":89.5049,"MEAN_ANOMALY":270.6112,"EPHEMERIS_TYPE":0,"CLASSIFICATION_TYPE":"U","NORAD_CAT_ID":48455,"ELEMENT_SET_NO":999,"REV_AT_EPOCH":26801,"BSTAR":0.00014859331,"MEAN_MOTION_DOT":4.044e-5,"MEAN_MOTION_DDOT":0},{"OBJECT_NAME":"STARLINK-2698","OBJECT_ID":"2021-040AG","EPOCH":"2026-03-18T14:04:35.283936","MEAN_MOTION":15.30243024,"ECCENTRICITY":9.344e-5,"INCLINATION":53.1566,"RA_OF_ASC_NODE":137.4704,"ARG_OF_PERICENTER":83.2801,"MEAN_ANOMALY":276.8306,"EPHEMERIS_TYPE":0,"CLASSIFICATION_TYPE":"U","NORAD_CAT_ID":48458,"ELEMENT_SET_NO":999,"REV_AT_EPOCH":26875,"BSTAR":0.00066628112,"MEAN_MOTION_DOT":0.00019452,"MEAN_MOTION_DDOT":0},{"OBJECT_NAME":"STARLINK-2579","OBJECT_ID":"2021-040AH","EPOCH":"2026-03-18T13:12:52.724736","MEAN_MOTION":15.30186644,"ECCENTRICITY":0.00013089,"INCLINATION":53.1604,"RA_OF_ASC_NODE":137.0021,"ARG_OF_PERICENTER":100.3895,"MEAN_ANOMALY":259.7254,"EPHEMERIS_TYPE":0,"CLASSIFICATION_TYPE":"U","NORAD_CAT_ID":48459,"ELEMENT_SET_NO":999,"REV_AT_EPOCH":26805,"BSTAR":0.00012291801,"MEAN_MOTION_DOT":3.281e-5,"MEAN_MOTION_DDOT":0},{"OBJECT_NAME":"STARLINK-2582","OBJECT_ID":"2021-040AJ","EPOCH":"2026-03-18T07:12:01.024704","MEAN_MOTION":15.57176125,"ECCENTRICITY":0.0004833,"INCLINATION":53.0576,"RA_OF_ASC_NODE":88.7289,"ARG_OF_PERICENTER":35.2453,"MEAN_ANOMALY":324.8877,"EPHEMERIS_TYPE":0,"CLASSIFICATION_TYPE":"U","NORAD_CAT_ID":48460,"ELEMENT_SET_NO":999,"REV_AT_EPOCH":26921,"BSTAR":0.0012988,"MEAN_MOTION_DOT":0.00096802,"MEAN_MOTION_DDOT":0},{"OBJECT_NAME":"STARLINK-2683","OBJECT_ID":"2021-040AL","EPOCH":"2026-03-18T13:53:08.454048","MEAN_MOTION":15.30207844,"ECCENTRICITY":0.00011905,"INCLINATION":53.16,"RA_OF_ASC_NODE":149.7459,"ARG_OF_PERICENTER":79.5636,"MEAN_ANOMALY":280.5499,"EPHEMERIS_TYPE":0,"CLASSIFICATION_TYPE":"U","NORAD_CAT_ID":48462,"ELEMENT_SET_NO":999,"REV_AT_EPOCH":26786,"BSTAR":0.00077749536,"MEAN_MOTION_DOT":0.00022744,"MEAN_MOTION_DDOT":0},{"OBJECT_NAME":"STARLINK-2686","OBJECT_ID":"2021-040AN","EPOCH":"2026-03-18T10:29:36.661632","MEAN_MOTION":15.2935142,"ECCENTRICITY":0.00012165,"INCLINATION":53.1552,"RA_OF_ASC_NODE":150.1609,"ARG_OF_PERICENTER":91.0429,"MEAN_ANOMALY":269.071,"EPHEMERIS_TYPE":0,"CLASSIFICATION_TYPE":"U","NORAD_CAT_ID":48464,"ELEMENT_SET_NO":999,"REV_AT_EPOCH":26784,"BSTAR":0.00022559474,"MEAN_MOTION_DOT":6.158e-5,"MEAN_MOTION_DDOT":0},{"OBJECT_NAME":"STARLINK-2681","OBJECT_ID":"2021-040AP","EPOCH":"2026-03-18T11:51:15.914016","MEAN_MOTION":15.30904642,"ECCENTRICITY":0.00016134,"INCLINATION":53.1414,"RA_OF_ASC_NODE":150.3444,"ARG_OF_PERICENTER":37.9934,"MEAN_ANOMALY":322.118,"EPHEMERIS_TYPE":0,"CLASSIFICATION_TYPE":"U","NORAD_CAT_ID":48465,"ELEMENT_SET_NO":999,"REV_AT_EPOCH":26785,"BSTAR":0.0091387208,"MEAN_MOTION_DOT":0.00287199,"MEAN_MOTION_DDOT":0},{"OBJECT_NAME":"STARLINK-2687","OBJECT_ID":"2021-040AQ","EPOCH":"2026-03-18T11:09:18.132480","MEAN_MOTION":15.29921001,"ECCENTRICITY":0.00010822,"INCLINATION":53.1586,"RA_OF_ASC_NODE":150.3448,"ARG_OF_PERICENTER":79.8133,"MEAN_ANOMALY":280.299,"EPHEMERIS_TYPE":0,"CLASSIFICATION_TYPE":"U","NORAD_CAT_ID":48466,"ELEMENT_SET_NO":999,"REV_AT_EPOCH":26785,"BSTAR":0.0021300977,"MEAN_MOTION_DOT":0.00062717,"MEAN_MOTION_DDOT":0},{"OBJECT_NAME":"STARLINK-2659","OBJECT_ID":"2021-040AR","EPOCH":"2026-03-18T11:32:02.499072","MEAN_MOTION":15.30192117,"ECCENTRICITY":0.00012753,"INCLINATION":53.1602,"RA_OF_ASC_NODE":150.1755,"ARG_OF_PERICENTER":87.0339,"MEAN_ANOMALY":273.0808,"EPHEMERIS_TYPE":0,"CLASSIFICATION_TYPE":"U","NORAD_CAT_ID":48467,"ELEMENT_SET_NO":999,"REV_AT_EPOCH":26785,"BSTAR":3.3006921e-5,"MEAN_MOTION_DOT":6.18e-6,"MEAN_MOTION_DDOT":0},{"OBJECT_NAME":"STARLINK-2685","OBJECT_ID":"2021-040AS","EPOCH":"2026-03-18T11:45:05.696064","MEAN_MOTION":15.29358537,"ECCENTRICITY":0.00011664,"INCLINATION":53.1575,"RA_OF_ASC_NODE":150.4061,"ARG_OF_PERICENTER":87.353,"MEAN_ANOMALY":272.7604,"EPHEMERIS_TYPE":0,"CLASSIFICATION_TYPE":"U","NORAD_CAT_ID":48468,"ELEMENT_SET_NO":999,"REV_AT_EPOCH":26785,"BSTAR":8.6913395e-5,"MEAN_MOTION_DOT":2.153e-5,"MEAN_MOTION_DDOT":0},{"OBJECT_NAME":"STARLINK-2661","OBJECT_ID":"2021-040AT","EPOCH":"2026-03-18T14:42:42.863040","MEAN_MOTION":15.29355637,"ECCENTRICITY":7.423e-5,"INCLINATION":53.156,"RA_OF_ASC_NODE":149.6156,"ARG_OF_PERICENTER":82.8411,"MEAN_ANOMALY":277.2674,"EPHEMERIS_TYPE":0,"CLASSIFICATION_TYPE":"U","NORAD_CAT_ID":48469,"ELEMENT_SET_NO":999,"REV_AT_EPOCH":26787,"BSTAR":0.00017177955,"MEAN_MOTION_DOT":4.604e-5,"MEAN_MOTION_DDOT":0},{"OBJECT_NAME":"STARLINK-2675","OBJECT_ID":"2021-040AU","EPOCH":"2026-03-18T11:22:58.045152","MEAN_MOTION":15.30180998,"ECCENTRICITY":0.00010332,"INCLINATION":53.1612,"RA_OF_ASC_NODE":150.2352,"ARG_OF_PERICENTER":74.3264,"MEAN_ANOMALY":285.7851,"EPHEMERIS_TYPE":0,"CLASSIFICATION_TYPE":"U","NORAD_CAT_ID":48470,"ELEMENT_SET_NO":999,"REV_AT_EPOCH":26784,"BSTAR":9.2551167e-5,"MEAN_MOTION_DOT":2.381e-5,"MEAN_MOTION_DDOT":0},{"OBJECT_NAME":"STARLINK-2684","OBJECT_ID":"2021-040AV","EPOCH":"2026-03-18T11:07:31.589184","MEAN_MOTION":15.29376451,"ECCENTRICITY":0.00017331,"INCLINATION":53.1576,"RA_OF_ASC_NODE":150.23,"ARG_OF_PERICENTER":91.5843,"MEAN_ANOMALY":268.5356,"EPHEMERIS_TYPE":0,"CLASSIFICATION_TYPE":"U","NORAD_CAT_ID":48471,"ELEMENT_SET_NO":999,"REV_AT_EPOCH":26784,"BSTAR":0.00071554473,"MEAN_MOTION_DOT":0.00020361,"MEAN_MOTION_DDOT":0},{"OBJECT_NAME":"STARLINK-2722","OBJECT_ID":"2021-040AW","EPOCH":"2026-03-18T14:59:21.195168","MEAN_MOTION":15.08582569,"ECCENTRICITY":0.00010271,"INCLINATION":53.0611,"RA_OF_ASC_NODE":151.2735,"ARG_OF_PERICENTER":54.4775,"MEAN_ANOMALY":305.6311,"EPHEMERIS_TYPE":0,"CLASSIFICATION_TYPE":"U","NORAD_CAT_ID":48472,"ELEMENT_SET_NO":999,"REV_AT_EPOCH":26783,"BSTAR":0.0010277479,"MEAN_MOTION_DOT":0.00015993,"MEAN_MOTION_DDOT":0},{"OBJECT_NAME":"STARLINK-2658","OBJECT_ID":"2021-040AX","EPOCH":"2026-03-18T11:39:22.537728","MEAN_MOTION":15.2960719,"ECCENTRICITY":0.00011099,"INCLINATION":53.1583,"RA_OF_ASC_NODE":150.1665,"ARG_OF_PERICENTER":67.1393,"MEAN_ANOMALY":292.9725,"EPHEMERIS_TYPE":0,"CLASSIFICATION_TYPE":"U","NORAD_CAT_ID":48473,"ELEMENT_SET_NO":999,"REV_AT_EPOCH":26784,"BSTAR":0.00118903,"MEAN_MOTION_DOT":0.0003438,"MEAN_MOTION_DDOT":0},{"OBJECT_NAME":"STARLINK-2697","OBJECT_ID":"2021-040AY","EPOCH":"2026-03-18T09:18:41.463360","MEAN_MOTION":15.29341653,"ECCENTRICITY":0.00012745,"INCLINATION":53.1551,"RA_OF_ASC_NODE":150.6221,"ARG_OF_PERICENTER":101.6127,"MEAN_ANOMALY":258.5016,"EPHEMERIS_TYPE":0,"CLASSIFICATION_TYPE":"U","NORAD_CAT_ID":48474,"ELEMENT_SET_NO":999,"REV_AT_EPOCH":26782,"BSTAR":4.4172069e-5,"MEAN_MOTION_DOT":9.18e-6,"MEAN_MOTION_DDOT":0},{"OBJECT_NAME":"STARLINK-2728","OBJECT_ID":"2021-040BC","EPOCH":"2026-03-18T16:00:01.999584","MEAN_MOTION":15.29346336,"ECCENTRICITY":0.00013717,"INCLINATION":53.1552,"RA_OF_ASC_NODE":149.2344,"ARG_OF_PERICENTER":79.5926,"MEAN_ANOMALY":189.5682,"EPHEMERIS_TYPE":0,"CLASSIFICATION_TYPE":"U","NORAD_CAT_ID":48478,"ELEMENT_SET_NO":999,"REV_AT_EPOCH":581,"BSTAR":0.0017014118,"MEAN_MOTION_DOT":0.0004905,"MEAN_MOTION_DDOT":0},{"OBJECT_NAME":"STARLINK-2755","OBJECT_ID":"2021-040BD","EPOCH":"2026-03-18T11:16:14.227104","MEAN_MOTION":15.29355126,"ECCENTRICITY":3.922e-5,"INCLINATION":53.1575,"RA_OF_ASC_NODE":150.01,"ARG_OF_PERICENTER":57.6327,"MEAN_ANOMALY":302.4711,"EPHEMERIS_TYPE":0,"CLASSIFICATION_TYPE":"U","NORAD_CAT_ID":48479,"ELEMENT_SET_NO":999,"REV_AT_EPOCH":26784,"BSTAR":0.00085539629,"MEAN_MOTION_DOT":0.00024408,"MEAN_MOTION_DDOT":0},{"OBJECT_NAME":"STARLINK-2706","OBJECT_ID":"2021-040BF","EPOCH":"2026-03-18T14:48:35.276544","MEAN_MOTION":15.30195018,"ECCENTRICITY":0.00012233,"INCLINATION":53.1591,"RA_OF_ASC_NODE":152.0442,"ARG_OF_PERICENTER":74.9715,"MEAN_ANOMALY":285.1421,"EPHEMERIS_TYPE":0,"CLASSIFICATION_TYPE":"U","NORAD_CAT_ID":48481,"ELEMENT_SET_NO":999,"REV_AT_EPOCH":26783,"BSTAR":0.00022095324,"MEAN_MOTION_DOT":6.189e-5,"MEAN_MOTION_DDOT":0},{"OBJECT_NAME":"STARLINK-2525","OBJECT_ID":"2021-040BG","EPOCH":"2026-03-18T09:28:35.715648","MEAN_MOTION":15.30187454,"ECCENTRICITY":8.905e-5,"INCLINATION":53.1605,"RA_OF_ASC_NODE":153.5042,"ARG_OF_PERICENTER":98.3576,"MEAN_ANOMALY":261.7525,"EPHEMERIS_TYPE":0,"CLASSIFICATION_TYPE":"U","NORAD_CAT_ID":48482,"ELEMENT_SET_NO":999,"REV_AT_EPOCH":26779,"BSTAR":0.00011552167,"MEAN_MOTION_DOT":3.063e-5,"MEAN_MOTION_DDOT":0},{"OBJECT_NAME":"STARLINK-2531","OBJECT_ID":"2021-040BH","EPOCH":"2026-03-18T09:42:17.104032","MEAN_MOTION":15.30201364,"ECCENTRICITY":0.00013441,"INCLINATION":53.1615,"RA_OF_ASC_NODE":153.5934,"ARG_OF_PERICENTER":88.2387,"MEAN_ANOMALY":271.8768,"EPHEMERIS_TYPE":0,"CLASSIFICATION_TYPE":"U","NORAD_CAT_ID":48483,"ELEMENT_SET_NO":999,"REV_AT_EPOCH":26779,"BSTAR":0.00026126663,"MEAN_MOTION_DOT":7.387e-5,"MEAN_MOTION_DDOT":0},{"OBJECT_NAME":"STARLINK-2500","OBJECT_ID":"2021-040BK","EPOCH":"2026-03-18T12:12:23.841792","MEAN_MOTION":15.30197722,"ECCENTRICITY":0.00012693,"INCLINATION":53.1573,"RA_OF_ASC_NODE":152.7712,"ARG_OF_PERICENTER":88.8697,"MEAN_ANOMALY":271.2449,"EPHEMERIS_TYPE":0,"CLASSIFICATION_TYPE":"U","NORAD_CAT_ID":48485,"ELEMENT_SET_NO":999,"REV_AT_EPOCH":26781,"BSTAR":0.00017538035,"MEAN_MOTION_DOT":4.838e-5,"MEAN_MOTION_DDOT":0}]
